GPS BIIF-4  (PRN 27)    
1 39166U 13023A   24141.34128321 -.00000059  00000+0  00000+0 0  9993
2 39166  55.1382 299.7022 0124075  44.6113 316.3613  2.00563045 80680
